{
  "type": "FeatureCollection",
  "features": [
    {
      "type": "Feature",
      "properties": {
        "norad_id": 38001,
        "name": "COSMOS 2251 DEB",
        "group": "cosmos-2251-debris",
        "lat": -24.192891161827156,
        "lon": -33.293134031619495,
        "alt_km": 632.7356707072931,
        "timestamp": "2025-12-09T04:51:47.889532+00:00",
        "meta_object_name": "COSMOS 2251 DEB",
        "meta_object_id": "1993-036BRC",
        "meta_epoch": "2025-12-07T21:46:57.258624",
        "meta_mean_motion": 14.78989425,
        "meta_eccentricity": 0.00653645,
        "meta_inclination": 74,
        "meta_ra_of_asc_node": 141.8516,
        "meta_arg_of_pericenter": 292.2113,
        "meta_mean_anomaly": 221.278,
        "meta_ephemeris_type": 0,
        "meta_classification_type": "U",
        "meta_norad_cat_id": 38001,
        "meta_element_set_no": 999,
        "meta_rev_at_epoch": 74636,
        "meta_bstar": 0.0010003516,
        "meta_mean_motion_dot": 7.632e-05,
        "meta_mean_motion_ddot": 0,
        "tle_line1": "1 38001U 93036BRC 25341.90760716  .00007632  00000+0  10004-2 0  9998",
        "tle_line2": "2 38001  74.0000 141.8516 0065364 292.2113 221.2780 14.78989425746360"
      },
      "geometry": {
        "type": "Point",
        "coordinates": [
          -33.293134031619495,
          -24.192891161827156
        ]
      }
    },
    {
      "type": "Feature",
      "properties": {
        "norad_id": 38006,
        "name": "COSMOS 2251 DEB",
        "group": "cosmos-2251-debris",
        "lat": 65.81526585020113,
        "lon": -175.4785120844562,
        "alt_km": 754.3849870473205,
        "timestamp": "2025-12-09T04:51:47.889542+00:00",
        "meta_object_name": "COSMOS 2251 DEB",
        "meta_object_id": "1993-036BRH",
        "meta_epoch": "2025-12-04T21:24:00.571392",
        "meta_mean_motion": 14.45613673,
        "meta_eccentricity": 0.0074849,
        "meta_inclination": 73.8488,
        "meta_ra_of_asc_node": 52.8364,
        "meta_arg_of_pericenter": 2.834,
        "meta_mean_anomaly": 357.3225,
        "meta_ephemeris_type": 0,
        "meta_classification_type": "U",
        "meta_norad_cat_id": 38006,
        "meta_element_set_no": 999,
        "meta_rev_at_epoch": 62846,
        "meta_bstar": 0.0044211,
        "meta_mean_motion_dot": 0.00016183,
        "meta_mean_motion_ddot": 0,
        "tle_line1": "1 38006U 93036BRH 25338.89167328  .00016183  00000+0  44211-2 0  9995",
        "tle_line2": "2 38006  73.8488  52.8364 0074849   2.8340 357.3225 14.45613673628467"
      },
      "geometry": {
        "type": "Point",
        "coordinates": [
          -175.4785120844562,
          65.81526585020113
        ]
      }
    },
    {
      "type": "Feature",
      "properties": {
        "norad_id": 38054,
        "name": "COSMOS 2251 DEB",
        "group": "cosmos-2251-debris",
        "lat": -25.062718024697563,
        "lon": 99.3147697408464,
        "alt_km": 836.9251346301526,
        "timestamp": "2025-12-09T04:51:47.889552+00:00",
        "meta_object_name": "COSMOS 2251 DEB",
        "meta_object_id": "1993-036BRL",
        "meta_epoch": "2025-12-06T19:35:06.065952",
        "meta_mean_motion": 13.62293123,
        "meta_eccentricity": 0.0360398,
        "meta_inclination": 73.9587,
        "meta_ra_of_asc_node": 275.4844,
        "meta_arg_of_pericenter": 254.7432,
        "meta_mean_anomaly": 133.9151,
        "meta_ephemeris_type": 0,
        "meta_classification_type": "U",
        "meta_norad_cat_id": 38054,
        "meta_element_set_no": 999,
        "meta_rev_at_epoch": 67099,
        "meta_bstar": 0.0049752628,
        "meta_mean_motion_dot": 5.934e-05,
        "meta_mean_motion_ddot": 0,
        "tle_line1": "1 38054U 93036BRL 25340.81604243  .00005934  00000+0  49753-2 0  9993",
        "tle_line2": "2 38054  73.9587 275.4844 0360398 254.7432 133.9151 13.62293123670997"
      },
      "geometry": {
        "type": "Point",
        "coordinates": [
          99.3147697408464,
          -25.062718024697563
        ]
      }
    },
    {
      "type": "Feature",
      "properties": {
        "norad_id": 38055,
        "name": "COSMOS 2251 DEB",
        "group": "cosmos-2251-debris",
        "lat": 53.431042721986856,
        "lon": 10.960985683548373,
        "alt_km": 669.579315220155,
        "timestamp": "2025-12-09T04:51:47.889562+00:00",
        "meta_object_name": "COSMOS 2251 DEB",
        "meta_object_id": "1993-036BRM",
        "meta_epoch": "2025-12-08T09:35:56.658912",
        "meta_mean_motion": 14.76901883,
        "meta_eccentricity": 0.00657195,
        "meta_inclination": 74.0086,
        "meta_ra_of_asc_node": 215.2783,
        "meta_arg_of_pericenter": 343.7571,
        "meta_mean_anomaly": 193.0951,
        "meta_ephemeris_type": 0,
        "meta_classification_type": "U",
        "meta_norad_cat_id": 38055,
        "meta_element_set_no": 999,
        "meta_rev_at_epoch": 60618,
        "meta_bstar": 0.0010877136,
        "meta_mean_motion_dot": 7.901e-05,
        "meta_mean_motion_ddot": 0,
        "tle_line1": "1 38055U 93036BRM 25342.39996133  .00007901  00000+0  10877-2 0  9992",
        "tle_line2": "2 38055  74.0086 215.2783 0065719 343.7571 193.0951 14.76901883606180"
      },
      "geometry": {
        "type": "Point",
        "coordinates": [
          10.960985683548373,
          53.431042721986856
        ]
      }
    },
    {
      "type": "Feature",
      "properties": {
        "norad_id": 38060,
        "name": "COSMOS 2251 DEB",
        "group": "cosmos-2251-debris",
        "lat": 23.785610812272296,
        "lon": 114.85031724045264,
        "alt_km": 690.9891171496511,
        "timestamp": "2025-12-09T04:51:47.889572+00:00",
        "meta_object_name": "COSMOS 2251 DEB",
        "meta_object_id": "1993-036BRS",
        "meta_epoch": "2025-12-08T15:02:26.401344",
        "meta_mean_motion": 14.63819883,
        "meta_eccentricity": 0.0057903,
        "meta_inclination": 74.0428,
        "meta_ra_of_asc_node": 303.2001,
        "meta_arg_of_pericenter": 50.388,
        "meta_mean_anomaly": 310.2378,
        "meta_ephemeris_type": 0,
        "meta_classification_type": "U",
        "meta_norad_cat_id": 38060,
        "meta_element_set_no": 999,
        "meta_rev_at_epoch": 71904,
        "meta_bstar": 0.0010404,
        "meta_mean_motion_dot": 5.538e-05,
        "meta_mean_motion_ddot": 0,
        "tle_line1": "1 38060U 93036BRS 25342.62669446  .00005538  00000+0  10404-2 0  9998",
        "tle_line2": "2 38060  74.0428 303.2001 0057903  50.3880 310.2378 14.63819883719047"
      },
      "geometry": {
        "type": "Point",
        "coordinates": [
          114.85031724045264,
          23.785610812272296
        ]
      }
    },
    {
      "type": "Feature",
      "properties": {
        "norad_id": 38062,
        "name": "COSMOS 2251 DEB",
        "group": "cosmos-2251-debris",
        "lat": 73.99896045427484,
        "lon": 27.414700257093813,
        "alt_km": 568.7018354725342,
        "timestamp": "2025-12-09T04:51:47.889582+00:00",
        "meta_object_name": "COSMOS 2251 DEB",
        "meta_object_id": "1993-036BRU",
        "meta_epoch": "2025-12-06T04:12:38.753856",
        "meta_mean_motion": 14.94290132,
        "meta_eccentricity": 0.00122346,
        "meta_inclination": 74.0094,
        "meta_ra_of_asc_node": 303.7202,
        "meta_arg_of_pericenter": 72.1633,
        "meta_mean_anomaly": 298.7726,
        "meta_ephemeris_type": 0,
        "meta_classification_type": "U",
        "meta_norad_cat_id": 38062,
        "meta_element_set_no": 999,
        "meta_rev_at_epoch": 62932,
        "meta_bstar": 0.0035053507,
        "meta_mean_motion_dot": 0.00037877,
        "meta_mean_motion_ddot": 0,
        "tle_line1": "1 38062U 93036BRU 25340.17544854  .00037877  00000+0  35054-2 0  9992",
        "tle_line2": "2 38062  74.0094 303.7202 0012234  72.1633 298.7726 14.94290132629324"
      },
      "geometry": {
        "type": "Point",
        "coordinates": [
          27.414700257093813,
          73.99896045427484
        ]
      }
    },
    {
      "type": "Feature",
      "properties": {
        "norad_id": 38064,
        "name": "COSMOS 2251 DEB",
        "group": "cosmos-2251-debris",
        "lat": 40.936815807840084,
        "lon": -63.53704469706442,
        "alt_km": 715.2815797001649,
        "timestamp": "2025-12-09T04:51:47.889592+00:00",
        "meta_object_name": "COSMOS 2251 DEB",
        "meta_object_id": "1993-036BRW",
        "meta_epoch": "2025-12-08T19:59:17.678400",
        "meta_mean_motion": 14.56247306,
        "meta_eccentricity": 0.0047528,
        "meta_inclination": 74.0223,
        "meta_ra_of_asc_node": 131.5539,
        "meta_arg_of_pericenter": 251.7836,
        "meta_mean_anomaly": 107.8151,
        "meta_ephemeris_type": 0,
        "meta_classification_type": "U",
        "meta_norad_cat_id": 38064,
        "meta_element_set_no": 999,
        "meta_rev_at_epoch": 71808,
        "meta_bstar": 0.0016943,
        "meta_mean_motion_dot": 7.589e-05,
        "meta_mean_motion_ddot": 0,
        "tle_line1": "1 38064U 93036BRW 25342.83284350  .00007589  00000+0  16943-2 0  9994",
        "tle_line2": "2 38064  74.0223 131.5539 0047528 251.7836 107.8151 14.56247306718081"
      },
      "geometry": {
        "type": "Point",
        "coordinates": [
          -63.53704469706442,
          40.936815807840084
        ]
      }
    }
  ]
}